{"fetched_at":"2026-07-17T17:38:19.080Z","source":"https://celestrak.org/NORAD/elements/gp.php?NAME=HULIANWANG&FORMAT=JSON","constellation":"guowang","records":[{"OBJECT_NAME":"HULIANWANG DIGUI-140","OBJECT_ID":"2026-007D","EPOCH":"2026-07-16T15:37:51.078432","CLASSIFICATION_TYPE":"U","MEAN_MOTION":13.29326067,"ECCENTRICITY":0.0000873,"INCLINATION":50.0072,"RA_OF_ASC_NODE":340.3662,"ARG_OF_PERICENTER":121.7895,"MEAN_ANOMALY":238.3062,"EPHEMERIS_TYPE":0,"NORAD_CAT_ID":67438,"ELEMENT_SET_NO":999,"REV_AT_EPOCH":2470,"BSTAR":0.000018434619,"MEAN_MOTION_DOT":-0.00000115,"MEAN_MOTION_DDOT":0},{"OBJECT_NAME":"HULIANWANG DIGUI-141","OBJECT_ID":"2026-007E","EPOCH":"2026-07-16T18:26:12.254496","CLASSIFICATION_TYPE":"U","MEAN_MOTION":13.29326896,"ECCENTRICITY":0.00008645,"INCLINATION":50.0067,"RA_OF_ASC_NODE":339.6429,"ARG_OF_PERICENTER":120.5623,"MEAN_ANOMALY":239.5334,"EPHEMERIS_TYPE":0,"NORAD_CAT_ID":67439,"ELEMENT_SET_NO":999,"REV_AT_EPOCH":2472,"BSTAR":0.000048570288,"MEAN_MOTION_DOT":-0.00000102,"MEAN_MOTION_DDOT":0},{"OBJECT_NAME":"HULIANWANG DIGUI-142","OBJECT_ID":"2026-007F","EPOCH":"2026-07-16T18:14:13.239744","CLASSIFICATION_TYPE":"U","MEAN_MOTION":13.29326601,"ECCENTRICITY":0.00008864,"INCLINATION":50.014,"RA_OF_ASC_NODE":339.7156,"ARG_OF_PERICENTER":122.7416,"MEAN_ANOMALY":237.3542,"EPHEMERIS_TYPE":0,"NORAD_CAT_ID":67440,"ELEMENT_SET_NO":999,"REV_AT_EPOCH":2472,"BSTAR":0.000033521106,"MEAN_MOTION_DOT":-0.00000109,"MEAN_MOTION_DDOT":0},{"OBJECT_NAME":"HULIANWANG DIGUI-143","OBJECT_ID":"2026-007G","EPOCH":"2026-07-16T18:02:15.456192","CLASSIFICATION_TYPE":"U","MEAN_MOTION":13.29324976,"ECCENTRICITY":0.00007278,"INCLINATION":50.0121,"RA_OF_ASC_NODE":339.6437,"ARG_OF_PERICENTER":123.7214,"MEAN_ANOMALY":236.3727,"EPHEMERIS_TYPE":0,"NORAD_CAT_ID":67441,"ELEMENT_SET_NO":999,"REV_AT_EPOCH":2472,"BSTAR":0.000025117531,"MEAN_MOTION_DOT":-0.00000112,"MEAN_MOTION_DDOT":0},{"OBJECT_NAME":"HULIANWANG DIGUI-144","OBJECT_ID":"2026-007H","EPOCH":"2026-07-16T19:38:12.541344","CLASSIFICATION_TYPE":"U","MEAN_MOTION":13.29329358,"ECCENTRICITY":0.0000875,"INCLINATION":50.0107,"RA_OF_ASC_NODE":339.3141,"ARG_OF_PERICENTER":127.7556,"MEAN_ANOMALY":232.3396,"EPHEMERIS_TYPE":0,"NORAD_CAT_ID":67442,"ELEMENT_SET_NO":999,"REV_AT_EPOCH":2473,"BSTAR":0.000051671627,"MEAN_MOTION_DOT":-0.000001,"MEAN_MOTION_DDOT":0},{"OBJECT_NAME":"HULIANWANG DIGUI-145","OBJECT_ID":"2026-007J","EPOCH":"2026-07-17T08:04:16.004640","CLASSIFICATION_TYPE":"U","MEAN_MOTION":13.2932588,"ECCENTRICITY":0.00008294,"INCLINATION":50.0111,"RA_OF_ASC_NODE":337.39,"ARG_OF_PERICENTER":127.2101,"MEAN_ANOMALY":232.8847,"EPHEMERIS_TYPE":0,"NORAD_CAT_ID":67443,"ELEMENT_SET_NO":999,"REV_AT_EPOCH":2480,"BSTAR":0.000029816949,"MEAN_MOTION_DOT":-0.0000011,"MEAN_MOTION_DDOT":0},{"OBJECT_NAME":"HULIANWANG DIGUI-146","OBJECT_ID":"2026-013A","EPOCH":"2026-07-17T03:44:00.207744","CLASSIFICATION_TYPE":"U","MEAN_MOTION":13.29325353,"ECCENTRICITY":0.00013477,"INCLINATION":50.0068,"RA_OF_ASC_NODE":248.4256,"ARG_OF_PERICENTER":225.5134,"MEAN_ANOMALY":134.5628,"EPHEMERIS_TYPE":0,"NORAD_CAT_ID":67522,"ELEMENT_SET_NO":999,"REV_AT_EPOCH":2403,"BSTAR":0.000072238049,"MEAN_MOTION_DOT":-9.1e-7,"MEAN_MOTION_DDOT":0},{"OBJECT_NAME":"HULIANWANG DIGUI-147","OBJECT_ID":"2026-013B","EPOCH":"2026-07-17T03:31:45.676416","CLASSIFICATION_TYPE":"U","MEAN_MOTION":13.2932889,"ECCENTRICITY":0.00012591,"INCLINATION":50.0038,"RA_OF_ASC_NODE":248.3333,"ARG_OF_PERICENTER":225.7519,"MEAN_ANOMALY":134.325,"EPHEMERIS_TYPE":0,"NORAD_CAT_ID":67523,"ELEMENT_SET_NO":999,"REV_AT_EPOCH":2403,"BSTAR":0.000067587711,"MEAN_MOTION_DOT":-9.3e-7,"MEAN_MOTION_DDOT":0},{"OBJECT_NAME":"HULIANWANG DIGUI-148","OBJECT_ID":"2026-013C","EPOCH":"2026-07-16T14:41:53.068128","CLASSIFICATION_TYPE":"U","MEAN_MOTION":13.29326799,"ECCENTRICITY":0.00012873,"INCLINATION":50.008,"RA_OF_ASC_NODE":250.2405,"ARG_OF_PERICENTER":223.3051,"MEAN_ANOMALY":136.7721,"EPHEMERIS_TYPE":0,"NORAD_CAT_ID":67524,"ELEMENT_SET_NO":999,"REV_AT_EPOCH":2396,"BSTAR":0.000079868434,"MEAN_MOTION_DOT":-8.7e-7,"MEAN_MOTION_DDOT":0},{"OBJECT_NAME":"HULIANWANG DIGUI-149","OBJECT_ID":"2026-013D","EPOCH":"2026-07-16T12:41:47.638176","CLASSIFICATION_TYPE":"U","MEAN_MOTION":13.2933131,"ECCENTRICITY":0.0001512,"INCLINATION":50.0074,"RA_OF_ASC_NODE":250.4586,"ARG_OF_PERICENTER":225.6042,"MEAN_ANOMALY":134.4706,"EPHEMERIS_TYPE":0,"NORAD_CAT_ID":67525,"ELEMENT_SET_NO":999,"REV_AT_EPOCH":2395,"BSTAR":0.000013371,"MEAN_MOTION_DOT":-0.00000118,"MEAN_MOTION_DDOT":0},{"OBJECT_NAME":"HULIANWANG DIGUI-150","OBJECT_ID":"2026-013E","EPOCH":"2026-07-17T04:32:05.934048","CLASSIFICATION_TYPE":"U","MEAN_MOTION":13.29325095,"ECCENTRICITY":0.00012808,"INCLINATION":50.0041,"RA_OF_ASC_NODE":247.8861,"ARG_OF_PERICENTER":226.5608,"MEAN_ANOMALY":133.5158,"EPHEMERIS_TYPE":0,"NORAD_CAT_ID":67526,"ELEMENT_SET_NO":999,"REV_AT_EPOCH":2406,"BSTAR":-0.00010575856,"MEAN_MOTION_DOT":-0.00000173,"MEAN_MOTION_DDOT":0},{"OBJECT_NAME":"HULIANWANG DIGUI-151","OBJECT_ID":"2026-013F","EPOCH":"2026-07-17T02:55:49.179936","CLASSIFICATION_TYPE":"U","MEAN_MOTION":13.29327345,"ECCENTRICITY":0.0001222,"INCLINATION":50.009,"RA_OF_ASC_NODE":248.2661,"ARG_OF_PERICENTER":226.1964,"MEAN_ANOMALY":133.8808,"EPHEMERIS_TYPE":0,"NORAD_CAT_ID":67527,"ELEMENT_SET_NO":999,"REV_AT_EPOCH":2403,"BSTAR":-0.000087371669,"MEAN_MOTION_DOT":-0.00000165,"MEAN_MOTION_DDOT":0},{"OBJECT_NAME":"HULIANWANG DIGUI-152","OBJECT_ID":"2026-013G","EPOCH":"2026-07-17T02:31:40.499040","CLASSIFICATION_TYPE":"U","MEAN_MOTION":13.29332593,"ECCENTRICITY":0.00012713,"INCLINATION":50.0024,"RA_OF_ASC_NODE":248.1018,"ARG_OF_PERICENTER":228.5222,"MEAN_ANOMALY":131.5541,"EPHEMERIS_TYPE":0,"NORAD_CAT_ID":67528,"ELEMENT_SET_NO":999,"REV_AT_EPOCH":2403,"BSTAR":0.000076544111,"MEAN_MOTION_DOT":-8.9e-7,"MEAN_MOTION_DDOT":0},{"OBJECT_NAME":"HULIANWANG DIGUI-153","OBJECT_ID":"2026-013H","EPOCH":"2026-07-17T04:08:03.121440","CLASSIFICATION_TYPE":"U","MEAN_MOTION":13.29323985,"ECCENTRICITY":0.00012891,"INCLINATION":50.0027,"RA_OF_ASC_NODE":247.7922,"ARG_OF_PERICENTER":229.6784,"MEAN_ANOMALY":130.3975,"EPHEMERIS_TYPE":0,"NORAD_CAT_ID":67529,"ELEMENT_SET_NO":999,"REV_AT_EPOCH":2403,"BSTAR":0.000077825617,"MEAN_MOTION_DOT":-8.8e-7,"MEAN_MOTION_DDOT":0},{"OBJECT_NAME":"HULIANWANG DIGUI-154","OBJECT_ID":"2026-013J","EPOCH":"2026-07-17T03:55:51.612384","CLASSIFICATION_TYPE":"U","MEAN_MOTION":13.29332385,"ECCENTRICITY":0.00012619,"INCLINATION":50.0051,"RA_OF_ASC_NODE":247.7876,"ARG_OF_PERICENTER":227.2108,"MEAN_ANOMALY":132.8658,"EPHEMERIS_TYPE":0,"NORAD_CAT_ID":67530,"ELEMENT_SET_NO":999,"REV_AT_EPOCH":2403,"BSTAR":0.000061222615,"MEAN_MOTION_DOT":-9.6e-7,"MEAN_MOTION_DDOT":0},{"OBJECT_NAME":"HULIANWANG DIGUI-155","OBJECT_ID":"2026-047A","EPOCH":"2026-07-16T07:45:53.030016","CLASSIFICATION_TYPE":"U","MEAN_MOTION":13.29333874,"ECCENTRICITY":0.0000923,"INCLINATION":50.0046,"RA_OF_ASC_NODE":311.8859,"ARG_OF_PERICENTER":205.4166,"MEAN_ANOMALY":154.6661,"EPHEMERIS_TYPE":0,"NORAD_CAT_ID":68129,"ELEMENT_SET_NO":999,"REV_AT_EPOCH":1694,"BSTAR":0.000057034,"MEAN_MOTION_DOT":-9.8e-7,"MEAN_MOTION_DDOT":0}]}
