HULIANWANG DIGUI-140    
1 67438U 26007D   26197.65128563 -.00000115  00000+0  18435-4 0  9996
2 67438  50.0072 340.3662 0000873 121.7895 238.3062 13.29326067 24705
HULIANWANG DIGUI-141    
1 67439U 26007E   26197.76819739 -.00000102  00000+0  48570-4 0  9990
2 67439  50.0067 339.6429 0000864 120.5623 239.5334 13.29326896 24725
HULIANWANG DIGUI-142    
1 67440U 26007F   26197.75987546 -.00000109  00000+0  33521-4 0  9990
2 67440  50.0140 339.7156 0000886 122.7416 237.3542 13.29326601 24726
HULIANWANG DIGUI-143    
1 67441U 26007G   26197.75156778 -.00000112  00000+0  25118-4 0  9993
2 67441  50.0121 339.6437 0000727 123.7214 236.3727 13.29324976 24725
HULIANWANG DIGUI-144    
1 67442U 26007H   26197.81820071 -.00000100  00000+0  51672-4 0  9996
2 67442  50.0107 339.3141 0000875 127.7556 232.3396 13.29329358 24734
HULIANWANG DIGUI-145    
1 67443U 26007J   26198.33629635 -.00000110  00000+0  29817-4 0  9995
2 67443  50.0111 337.3900 0000829 127.2101 232.8847 13.29325880 24801
HULIANWANG DIGUI-146    
1 67522U 26013A   26198.15555796 -.00000091  00000+0  72238-4 0  9999
2 67522  50.0068 248.4256 0001347 225.5134 134.5628 13.29325353 24035
HULIANWANG DIGUI-147    
1 67523U 26013B   26198.14705644 -.00000093  00000+0  67588-4 0  9992
2 67523  50.0038 248.3333 0001259 225.7519 134.3250 13.29328890 24037
HULIANWANG DIGUI-148    
1 67524U 26013C   26197.61241977 -.00000087  00000+0  79868-4 0  9995
2 67524  50.0080 250.2405 0001287 223.3051 136.7721 13.29326799 23969
HULIANWANG DIGUI-149    
1 67525U 26013D   26197.52902359 -.00000118  00000+0  13371-4 0  9996
2 67525  50.0074 250.4586 0001512 225.6042 134.4706 13.29331310 23953
HULIANWANG DIGUI-150    
1 67526U 26013E   26198.18895757 -.00000173  00000+0 -10576-3 0  9998
2 67526  50.0041 247.8861 0001280 226.5608 133.5158 13.29325095 24061
HULIANWANG DIGUI-151    
1 67527U 26013F   26198.12209699 -.00000165  00000+0 -87372-4 0  9997
2 67527  50.0090 248.2661 0001222 226.1964 133.8808 13.29327345 24038
HULIANWANG DIGUI-152    
1 67528U 26013G   26198.10532985 -.00000089  00000+0  76544-4 0  9996
2 67528  50.0024 248.1018 0001271 228.5222 131.5541 13.29332593 24038
HULIANWANG DIGUI-153    
1 67529U 26013H   26198.17225835 -.00000088  00000+0  77826-4 0  9990
2 67529  50.0027 247.7922 0001289 229.6784 130.3975 13.29323985 24038
HULIANWANG DIGUI-154    
1 67530U 26013J   26198.16379181 -.00000096  00000+0  61223-4 0  9998
2 67530  50.0051 247.7876 0001261 227.2108 132.8658 13.29332385 24038
HULIANWANG DIGUI-155    
1 68129U 26047A   26197.32353044 -.00000098  00000+0  57034-4 0  9994
2 68129  50.0046 311.8859 0000923 205.4166 154.6661 13.29333874 16948
